CCSDS_OMM_VERS = 2.0
CREATION_DATE  = 
ORIGINATOR     = 

OBJECT_NAME    = COSMOS 1933
OBJECT_ID      = 1988-020A
CENTER_NAME    = EARTH
REF_FRAME      = TEME
TIME_SYSTEM    = UTC
MEAN_ELEMENT_THEORY = SGP/SGP4

EPOCH          = 2026-01-13T01:53:59.951040
MEAN_MOTION    = 15.17439363
ECCENTRICITY   = .0005778
INCLINATION    = 82.5149
RA_OF_ASC_NODE = 305.9096
ARG_OF_PERICENTER = 49.7238
MEAN_ANOMALY   = 310.4500

EPHEMERIS_TYPE = 0
CLASSIFICATION_TYPE = U
NORAD_CAT_ID   = 18958
ELEMENT_SET_NO = 999
REV_AT_EPOCH   = 4179
BSTAR          = .202E-3
MEAN_MOTION_DOT = .4072E-4
MEAN_MOTION_DDOT = 0

CCSDS_OMM_VERS = 2.0
CREATION_DATE  = 
ORIGINATOR     = 

OBJECT_NAME    = SL-3 R/B
OBJECT_ID      = 1988-032B
CENTER_NAME    = EARTH
REF_FRAME      = TEME
TIME_SYSTEM    = UTC
MEAN_ELEMENT_THEORY = SGP/SGP4

EPOCH          = 2026-01-13T03:41:13.027200
MEAN_MOTION    = 15.19125265
ECCENTRICITY   = .0028312
INCLINATION    = 97.5110
RA_OF_ASC_NODE = 356.6701
ARG_OF_PERICENTER = 69.1843
MEAN_ANOMALY   = 291.2420

EPHEMERIS_TYPE = 0
CLASSIFICATION_TYPE = U
NORAD_CAT_ID   = 19046
ELEMENT_SET_NO = 999
REV_AT_EPOCH   = 4367
BSTAR          = .21038E-3
MEAN_MOTION_DOT = .4394E-4
MEAN_MOTION_DDOT = 0

CCSDS_OMM_VERS = 2.0
CREATION_DATE  = 
ORIGINATOR     = 

OBJECT_NAME    = SL-16 R/B
OBJECT_ID      = 1988-039B
CENTER_NAME    = EARTH
REF_FRAME      = TEME
TIME_SYSTEM    = UTC
MEAN_ELEMENT_THEORY = SGP/SGP4

EPOCH          = 2026-01-13T04:10:08.395392
MEAN_MOTION    = 14.19604768
ECCENTRICITY   = .0019734
INCLINATION    = 71.0133
RA_OF_ASC_NODE = 185.9344
ARG_OF_PERICENTER = 62.3965
MEAN_ANOMALY   = 297.9161

EPHEMERIS_TYPE = 0
CLASSIFICATION_TYPE = U
NORAD_CAT_ID   = 19120
ELEMENT_SET_NO = 999
REV_AT_EPOCH   = 95050
BSTAR          = .46294E-4
MEAN_MOTION_DOT = .5E-6
MEAN_MOTION_DDOT = 0

CCSDS_OMM_VERS = 2.0
CREATION_DATE  = 
ORIGINATOR     = 

OBJECT_NAME    = COSMOS 1953
OBJECT_ID      = 1988-050A
CENTER_NAME    = EARTH
REF_FRAME      = TEME
TIME_SYSTEM    = UTC
MEAN_ELEMENT_THEORY = SGP/SGP4

EPOCH          = 2026-01-13T00:35:41.530272
MEAN_MOTION    = 15.27361484
ECCENTRICITY   = .0011003
INCLINATION    = 82.5071
RA_OF_ASC_NODE = 214.1789
ARG_OF_PERICENTER = 326.6038
MEAN_ANOMALY   = 33.4505

EPHEMERIS_TYPE = 0
CLASSIFICATION_TYPE = U
NORAD_CAT_ID   = 19210
ELEMENT_SET_NO = 999
REV_AT_EPOCH   = 2928
BSTAR          = .20162E-3
MEAN_MOTION_DOT = .5441E-4
MEAN_MOTION_DDOT = 0

CCSDS_OMM_VERS = 2.0
CREATION_DATE  = 
ORIGINATOR     = 

OBJECT_NAME    = SL-8 R/B
OBJECT_ID      = 1988-053B
CENTER_NAME    = EARTH
REF_FRAME      = TEME
TIME_SYSTEM    = UTC
MEAN_ELEMENT_THEORY = SGP/SGP4

EPOCH          = 2026-01-13T01:19:32.318688
MEAN_MOTION    = 14.38879626
ECCENTRICITY   = .0019312
INCLINATION    = 74.0452
RA_OF_ASC_NODE = 215.0042
ARG_OF_PERICENTER = 47.5488
MEAN_ANOMALY   = 113.4543

EPHEMERIS_TYPE = 0
CLASSIFICATION_TYPE = U
NORAD_CAT_ID   = 19257
ELEMENT_SET_NO = 999
REV_AT_EPOCH   = 96859
BSTAR          = .44995E-4
MEAN_MOTION_DOT = .113E-5
MEAN_MOTION_DDOT = 0

CCSDS_OMM_VERS = 2.0
CREATION_DATE  = 
ORIGINATOR     = 

OBJECT_NAME    = COSMOS 1975
OBJECT_ID      = 1988-093A
CENTER_NAME    = EARTH
REF_FRAME      = TEME
TIME_SYSTEM    = UTC
MEAN_ELEMENT_THEORY = SGP/SGP4

EPOCH          = 2026-01-13T04:12:34.204032
MEAN_MOTION    = 15.26993329
ECCENTRICITY   = .0011841
INCLINATION    = 82.5198
RA_OF_ASC_NODE = 173.3462
ARG_OF_PERICENTER = 11.7641
MEAN_ANOMALY   = 348.3872

EPHEMERIS_TYPE = 0
CLASSIFICATION_TYPE = U
NORAD_CAT_ID   = 19573
ELEMENT_SET_NO = 999
REV_AT_EPOCH   = 1093
BSTAR          = .2112E-3
MEAN_MOTION_DOT = .5637E-4
MEAN_MOTION_DDOT = 0

CCSDS_OMM_VERS = 2.0
CREATION_DATE  = 
ORIGINATOR     = 

OBJECT_NAME    = SL-14 R/B
OBJECT_ID      = 1988-093B
CENTER_NAME    = EARTH
REF_FRAME      = TEME
TIME_SYSTEM    = UTC
MEAN_ELEMENT_THEORY = SGP/SGP4

EPOCH          = 2026-01-13T03:44:08.803680
MEAN_MOTION    = 14.85590238
ECCENTRICITY   = .0019778
INCLINATION    = 82.5312
RA_OF_ASC_NODE = 94.1863
ARG_OF_PERICENTER = 218.5862
MEAN_ANOMALY   = 163.3705

EPHEMERIS_TYPE = 0
CLASSIFICATION_TYPE = U
NORAD_CAT_ID   = 19574
ELEMENT_SET_NO = 999
REV_AT_EPOCH   = 99279
BSTAR          = .44168E-4
MEAN_MOTION_DOT = .407E-5
MEAN_MOTION_DDOT = 0

CCSDS_OMM_VERS = 2.0
CREATION_DATE  = 
ORIGINATOR     = 

OBJECT_NAME    = SL-16 R/B
OBJECT_ID      = 1988-102B
CENTER_NAME    = EARTH
REF_FRAME      = TEME
TIME_SYSTEM    = UTC
MEAN_ELEMENT_THEORY = SGP/SGP4

EPOCH          = 2026-01-13T04:10:17.994432
MEAN_MOTION    = 14.16142744
ECCENTRICITY   = .0011994
INCLINATION    = 70.9991
RA_OF_ASC_NODE = 268.3050
ARG_OF_PERICENTER = 96.6807
MEAN_ANOMALY   = 263.5682

EPHEMERIS_TYPE = 0
CLASSIFICATION_TYPE = U
NORAD_CAT_ID   = 19650
ELEMENT_SET_NO = 999
REV_AT_EPOCH   = 91903
BSTAR          = .13731E-3
MEAN_MOTION_DOT = .224E-5
MEAN_MOTION_DDOT = 0

CCSDS_OMM_VERS = 2.0
CREATION_DATE  = 
ORIGINATOR     = 

OBJECT_NAME    = INTERCOSMOS 24
OBJECT_ID      = 1989-080A
CENTER_NAME    = EARTH
REF_FRAME      = TEME
TIME_SYSTEM    = UTC
MEAN_ELEMENT_THEORY = SGP/SGP4

EPOCH          = 2026-01-13T01:02:52.566144
MEAN_MOTION    = 12.59485708
ECCENTRICITY   = .1188986
INCLINATION    = 82.6076
RA_OF_ASC_NODE = 140.6043
ARG_OF_PERICENTER = 61.9399
MEAN_ANOMALY   = 309.6766

EPHEMERIS_TYPE = 0
CLASSIFICATION_TYPE = U
NORAD_CAT_ID   = 20261
ELEMENT_SET_NO = 999
REV_AT_EPOCH   = 65979
BSTAR          = .10432E-3
MEAN_MOTION_DOT = .384E-5
MEAN_MOTION_DDOT = 0

CCSDS_OMM_VERS = 2.0
CREATION_DATE  = 
ORIGINATOR     = 

OBJECT_NAME    = SL-14 R/B
OBJECT_ID      = 1989-080C
CENTER_NAME    = EARTH
REF_FRAME      = TEME
TIME_SYSTEM    = UTC
MEAN_ELEMENT_THEORY = SGP/SGP4

EPOCH          = 2026-01-12T22:42:32.073984
MEAN_MOTION    = 12.50437693
ECCENTRICITY   = .1229824
INCLINATION    = 82.5911
RA_OF_ASC_NODE = 208.9816
ARG_OF_PERICENTER = 312.2593
MEAN_ANOMALY   = 38.0333

EPHEMERIS_TYPE = 0
CLASSIFICATION_TYPE = U
NORAD_CAT_ID   = 20262
ELEMENT_SET_NO = 999
REV_AT_EPOCH   = 65318
BSTAR          = .66307E-4
MEAN_MOTION_DOT = .222E-5
MEAN_MOTION_DDOT = 0

CCSDS_OMM_VERS = 2.0
CREATION_DATE  = 
ORIGINATOR     = 

OBJECT_NAME    = DELTA 1 R/B
OBJECT_ID      = 1989-089B
CENTER_NAME    = EARTH
REF_FRAME      = TEME
TIME_SYSTEM    = UTC
MEAN_ELEMENT_THEORY = SGP/SGP4

EPOCH          = 2026-01-13T02:15:30.144960
MEAN_MOTION    = 14.50604524
ECCENTRICITY   = .0067764
INCLINATION    = 97.0736
RA_OF_ASC_NODE = 229.3607
ARG_OF_PERICENTER = 299.0523
MEAN_ANOMALY   = 60.3898

EPHEMERIS_TYPE = 0
CLASSIFICATION_TYPE = U
NORAD_CAT_ID   = 20323
ELEMENT_SET_NO = 999
REV_AT_EPOCH   = 88767
BSTAR          = .89065E-4
MEAN_MOTION_DOT = .323E-5
MEAN_MOTION_DDOT = 0

CCSDS_OMM_VERS = 2.0
CREATION_DATE  = 
ORIGINATOR     = 

OBJECT_NAME    = ARIANE 40 R/B
OBJECT_ID      = 1990-005H
CENTER_NAME    = EARTH
REF_FRAME      = TEME
TIME_SYSTEM    = UTC
MEAN_ELEMENT_THEORY = SGP/SGP4

EPOCH          = 2026-01-13T03:36:37.242720
MEAN_MOTION    = 14.39825146
ECCENTRICITY   = .0010298
INCLINATION    = 98.3197
RA_OF_ASC_NODE = 75.4342
ARG_OF_PERICENTER = 18.6615
MEAN_ANOMALY   = 341.4950

EPHEMERIS_TYPE = 0
CLASSIFICATION_TYPE = U
NORAD_CAT_ID   = 20443
ELEMENT_SET_NO = 999
REV_AT_EPOCH   = 88481
BSTAR          = .80338E-4
MEAN_MOTION_DOT = .21E-5
MEAN_MOTION_DDOT = 0

