COSMOS 1933             
1 18958U 88020A   26013.07916610  .00004072  00000+0  20200-3 0  9990
2 18958  82.5149 305.9096 0005778  49.7238 310.4500 15.17439363 41790
SL-3 R/B                
1 19046U 88032B   26013.15362300  .00004394  00000+0  21038-3 0  9999
2 19046  97.5110 356.6701 0028312  69.1843 291.2420 15.19125265 43677
SL-16 R/B               
1 19120U 88039B   26013.17370828  .00000050  00000+0  46294-4 0  9992
2 19120  71.0133 185.9344 0019734  62.3965 297.9161 14.19604768950509
COSMOS 1953             
1 19210U 88050A   26013.02478623  .00005441  00000+0  20162-3 0  9995
2 19210  82.5071 214.1789 0011003 326.6038  33.4505 15.27361484 29285
SL-8 R/B                
1 19257U 88053B   26013.05523517  .00000113  00000+0  44995-4 0  9997
2 19257  74.0452 215.0042 0019312  47.5488 113.4543 14.38879626968596
COSMOS 1975             
1 19573U 88093A   26013.17539588  .00005637  00000+0  21120-3 0  9990
2 19573  82.5198 173.3462 0011841  11.7641 348.3872 15.26993329 10938
SL-14 R/B               
1 19574U 88093B   26013.15565745  .00000407  00000+0  44168-4 0  9991
2 19574  82.5312  94.1863 0019778 218.5862 163.3705 14.85590238992790
SL-16 R/B               
1 19650U 88102B   26013.17381938  .00000224  00000+0  13731-3 0  9997
2 19650  70.9991 268.3050 0011994  96.6807 263.5682 14.16142744919030
INTERCOSMOS 24          
1 20261U 89080A   26013.04366396  .00000384  00000+0  10432-3 0  9992
2 20261  82.6076 140.6043 1188986  61.9399 309.6766 12.59485708659790
SL-14 R/B               
1 20262U 89080C   26012.94620456  .00000222  00000+0  66307-4 0  9995
2 20262  82.5911 208.9816 1229824 312.2593  38.0333 12.50437693653180
DELTA 1 R/B             
1 20323U 89089B   26013.09409890  .00000323  00000+0  89065-4 0  9994
2 20323  97.0736 229.3607 0067764 299.0523  60.3898 14.50604524887674
ARIANE 40 R/B           
1 20443U 90005H   26013.15043105  .00000210  00000+0  80338-4 0  9996
2 20443  98.3197  75.4342 0010298  18.6615 341.4950 14.39825146884812
